{
  "type": "FeatureCollection",
  "name": "candidate_tile_footprints_top100",
  "crs": {
    "type": "name",
    "properties": {
      "name": "EPSG:4326"
    }
  },
  "features": [
    {
      "type": "Feature",
      "geometry": {
        "type": "Polygon",
        "coordinates": [
          [
            [
              56.62619079479506,
              27.062518938388415
            ],
            [
              56.678190794795064,
              27.062518938388415
            ],
            [
              56.678190794795064,
              27.108518938388414
            ],
            [
              56.62619079479506,
              27.108518938388414
            ],
            [
              56.62619079479506,
              27.062518938388415
            ]
          ]
        ]
      },
      "properties": {
        "rank": 1,
        "label": "negative",
        "context": "qeshm_hengam_context",
        "score": 2.755452367557549,
        "dark_frac": 0.12000274658203125,
        "largest_dark": 0.00323486328125,
        "edge_touch": 0.19693396226415094,
        "tile_name": "S1C_20260808T141633_preprocessed_r6144_c11776_uncertain.npz"
      }
    },
    {
      "type": "Feature",
      "geometry": {
        "type": "Polygon",
        "coordinates": [
          [
            [
              56.72967798133968,
              26.970285076986475
            ],
            [
              56.78167798133968,
              26.970285076986475
            ],
            [
              56.78167798133968,
              27.016285076986474
            ],
            [
              56.72967798133968,
              27.016285076986474
            ],
            [
              56.72967798133968,
              26.970285076986475
            ]
          ]
        ]
      },
      "properties": {
        "rank": 2,
        "label": "negative",
        "context": "qeshm_hengam_context",
        "score": 2.731276759901197,
        "dark_frac": 0.12000274658203125,
        "largest_dark": 0.003246307373046875,
        "edge_touch": 0.0,
        "tile_name": "S1C_20260808T141633_preprocessed_r7168_c12800_uncertain.npz"
      }
    },
    {
      "type": "Feature",
      "geometry": {
        "type": "Polygon",
        "coordinates": [
          [
            [
              56.678076643398555,
              26.970186159389858
            ],
            [
              56.73007664339856,
              26.970186159389858
            ],
            [
              56.73007664339856,
              27.016186159389857
            ],
            [
              56.678076643398555,
              27.016186159389857
            ],
            [
              56.678076643398555,
              26.970186159389858
            ]
          ]
        ]
      },
      "properties": {
        "rank": 3,
        "label": "positive",
        "context": "qeshm_hengam_context",
        "score": 2.634810595772767,
        "dark_frac": 0.12000274658203125,
        "largest_dark": 0.004779815673828125,
        "edge_touch": 0.0,
        "tile_name": "S1C_20260808T141633_preprocessed_r7168_c12288_uncertain.npz"
      }
    },
    {
      "type": "Feature",
      "geometry": {
        "type": "Polygon",
        "coordinates": [
          [
            [
              56.47187978883371,
              26.923376713358195
            ],
            [
              56.52387978883372,
              26.923376713358195
            ],
            [
              56.52387978883372,
              26.969376713358194
            ],
            [
              56.47187978883371,
              26.969376713358194
            ],
            [
              56.47187978883371,
              26.923376713358195
            ]
          ]
        ]
      },
      "properties": {
        "rank": 4,
        "label": "negative",
        "context": "qeshm_hengam_context",
        "score": 2.625448653944048,
        "dark_frac": 0.12000274658203125,
        "largest_dark": 0.00384521484375,
        "edge_touch": 0.0,
        "tile_name": "S1C_20260808T141633_preprocessed_r7680_c10240_uncertain.npz"
      }
    },
    {
      "type": "Feature",
      "geometry": {
        "type": "Polygon",
        "coordinates": [
          [
            [
              56.07161143839485,
              27.020163220794668
            ],
            [
              56.12361143839485,
              27.020163220794668
            ],
            [
              56.12361143839485,
              27.066163220794667
            ],
            [
              56.07161143839485,
              27.066163220794667
            ],
            [
              56.07161143839485,
              27.020163220794668
            ]
          ]
        ]
      },
      "properties": {
        "rank": 5,
        "label": "positive",
        "context": "qeshm_hengam_context",
        "score": 2.607867262505886,
        "dark_frac": 0.12000274658203125,
        "largest_dark": 0.026012420654296875,
        "edge_touch": 0.09796157794398005,
        "tile_name": "S1C_IW_GRDH_1SDV_20260804T021408_20260804T021438_r8192_c19456_uncertain.npz"
      }
    },
    {
      "type": "Feature",
      "geometry": {
        "type": "Polygon",
        "coordinates": [
          [
            [
              56.57454780354594,
              27.062381686794065
            ],
            [
              56.62654780354595,
              27.062381686794065
            ],
            [
              56.62654780354595,
              27.108381686794065
            ],
            [
              56.57454780354594,
              27.108381686794065
            ],
            [
              56.57454780354594,
              27.062381686794065
            ]
          ]
        ]
      },
      "properties": {
        "rank": 6,
        "label": "positive",
        "context": "qeshm_hengam_context",
        "score": 2.5402718020986965,
        "dark_frac": 0.12000274658203125,
        "largest_dark": 0.004791259765625,
        "edge_touch": 0.0,
        "tile_name": "S1C_20260808T141633_preprocessed_r6144_c11264_uncertain.npz"
      }
    },
    {
      "type": "Feature",
      "geometry": {
        "type": "Polygon",
        "coordinates": [
          [
            [
              56.729777735281935,
              26.924058894448397
            ],
            [
              56.78177773528194,
              26.924058894448397
            ],
            [
              56.78177773528194,
              26.970058894448396
            ],
            [
              56.729777735281935,
              26.970058894448396
            ],
            [
              56.729777735281935,
              26.924058894448397
            ]
          ]
        ]
      },
      "properties": {
        "rank": 7,
        "label": "negative",
        "context": "qeshm_hengam_context",
        "score": 2.5097982182827447,
        "dark_frac": 0.12000274658203125,
        "largest_dark": 0.0023651123046875,
        "edge_touch": 0.0,
        "tile_name": "S1C_20260808T141633_preprocessed_r7680_c12800_uncertain.npz"
      }
    },
    {
      "type": "Feature",
      "geometry": {
        "type": "Polygon",
        "coordinates": [
          [
            [
              55.06745890791361,
              26.62450003713337
            ],
            [
              55.11945890791362,
              26.62450003713337
            ],
            [
              55.11945890791362,
              26.67050003713337
            ],
            [
              55.06745890791361,
              26.67050003713337
            ],
            [
              55.06745890791361,
              26.62450003713337
            ]
          ]
        ]
      },
      "properties": {
        "rank": 8,
        "label": "negative",
        "context": "outside_primary_context",
        "score": 2.497403363386263,
        "dark_frac": 0.12000274658203125,
        "largest_dark": 0.00560760498046875,
        "edge_touch": 0.2761904761904762,
        "tile_name": "S1D_20260810T021454_preprocessed_r8192_c10240_uncertain.npz"
      }
    },
    {
      "type": "Feature",
      "geometry": {
        "type": "Polygon",
        "coordinates": [
          [
            [
              56.523458595917056,
              26.92355086356604
            ],
            [
              56.57545859591706,
              26.92355086356604
            ],
            [
              56.57545859591706,
              26.969550863566038
            ],
            [
              56.523458595917056,
              26.969550863566038
            ],
            [
              56.523458595917056,
              26.92355086356604
            ]
          ]
        ]
      },
      "properties": {
        "rank": 9,
        "label": "positive",
        "context": "qeshm_hengam_context",
        "score": 2.4492577209892232,
        "dark_frac": 0.12000274658203125,
        "largest_dark": 0.005764007568359375,
        "edge_touch": 0.0,
        "tile_name": "S1C_20260808T141633_preprocessed_r7680_c10752_uncertain.npz"
      }
    },
    {
      "type": "Feature",
      "geometry": {
        "type": "Polygon",
        "coordinates": [
          [
            [
              56.67819746490525,
              26.92396017323377
            ],
            [
              56.73019746490526,
              26.92396017323377
            ],
            [
              56.73019746490526,
              26.96996017323377
            ],
            [
              56.67819746490525,
              26.96996017323377
            ],
            [
              56.67819746490525,
              26.92396017323377
            ]
          ]
        ]
      },
      "properties": {
        "rank": 10,
        "label": "negative",
        "context": "qeshm_hengam_context",
        "score": 2.445095866428922,
        "dark_frac": 0.12000274658203125,
        "largest_dark": 0.002590179443359375,
        "edge_touch": 0.0,
        "tile_name": "S1C_20260808T141633_preprocessed_r7680_c12288_uncertain.npz"
      }
    },
    {
      "type": "Feature",
      "geometry": {
        "type": "Polygon",
        "coordinates": [
          [
            [
              56.67783412839272,
              27.062637219820804
            ],
            [
              56.729834128392724,
              27.062637219820804
            ],
            [
              56.729834128392724,
              27.108637219820803
            ],
            [
              56.67783412839272,
              27.108637219820803
            ],
            [
              56.67783412839272,
              27.062637219820804
            ]
          ]
        ]
      },
      "properties": {
        "rank": 11,
        "label": "negative",
        "context": "qeshm_hengam_context",
        "score": 2.4388706567670653,
        "dark_frac": 0.12000274658203125,
        "largest_dark": 0.00276947021484375,
        "edge_touch": 0.0,
        "tile_name": "S1C_20260808T141633_preprocessed_r6144_c12288_uncertain.npz"
      }
    },
    {
      "type": "Feature",
      "geometry": {
        "type": "Polygon",
        "coordinates": [
          [
            [
              56.57503784466209,
              26.92370615732081
            ],
            [
              56.6270378446621,
              26.92370615732081
            ],
            [
              56.6270378446621,
              26.96970615732081
            ],
            [
              56.57503784466209,
              26.96970615732081
            ],
            [
              56.57503784466209,
              26.92370615732081
            ]
          ]
        ]
      },
      "properties": {
        "rank": 12,
        "label": "negative",
        "context": "qeshm_hengam_context",
        "score": 2.3970617187506305,
        "dark_frac": 0.12000274658203125,
        "largest_dark": 0.0026092529296875,
        "edge_touch": 0.8464912280701754,
        "tile_name": "S1C_20260808T141633_preprocessed_r7680_c11264_uncertain.npz"
      }
    },
    {
      "type": "Feature",
      "geometry": {
        "type": "Polygon",
        "coordinates": [
          [
            [
              56.45475547107936,
              26.95992509744249
            ],
            [
              56.506755471079366,
              26.95992509744249
            ],
            [
              56.506755471079366,
              27.00592509744249
            ],
            [
              56.45475547107936,
              27.00592509744249
            ],
            [
              56.45475547107936,
              26.95992509744249
            ]
          ]
        ]
      },
      "properties": {
        "rank": 13,
        "label": "negative",
        "context": "qeshm_hengam_context",
        "score": 2.3821399611453664,
        "dark_frac": 0.12000274658203125,
        "largest_dark": 0.00766754150390625,
        "edge_touch": 0.35124378109452736,
        "tile_name": "S1D_20260810T021454_preprocessed_r4608_c24064_uncertain.npz"
      }
    },
    {
      "type": "Feature",
      "geometry": {
        "type": "Polygon",
        "coordinates": [
          [
            [
              56.6266174845114,
              26.923842594045656
            ],
            [
              56.678617484511406,
              26.923842594045656
            ],
            [
              56.678617484511406,
              26.969842594045655
            ],
            [
              56.6266174845114,
              26.969842594045655
            ],
            [
              56.6266174845114,
              26.923842594045656
            ]
          ]
        ]
      },
      "properties": {
        "rank": 14,
        "label": "negative",
        "context": "qeshm_hengam_context",
        "score": 2.3811186809436418,
        "dark_frac": 0.12000274658203125,
        "largest_dark": 0.002155303955078125,
        "edge_touch": 0.0,
        "tile_name": "S1C_20260808T141633_preprocessed_r7680_c11776_uncertain.npz"
      }
    },
    {
      "type": "Feature",
      "geometry": {
        "type": "Polygon",
        "coordinates": [
          [
            [
              56.52290520547289,
              27.06222546554839
            ],
            [
              56.574905205472895,
              27.06222546554839
            ],
            [
              56.574905205472895,
              27.10822546554839
            ],
            [
              56.52290520547289,
              27.10822546554839
            ],
            [
              56.52290520547289,
              27.06222546554839
            ]
          ]
        ]
      },
      "properties": {
        "rank": 15,
        "label": "negative",
        "context": "qeshm_hengam_context",
        "score": 2.3558680660077678,
        "dark_frac": 0.12000274658203125,
        "largest_dark": 0.00380706787109375,
        "edge_touch": 0.0,
        "tile_name": "S1C_20260808T141633_preprocessed_r6144_c10752_uncertain.npz"
      }
    },
    {
      "type": "Feature",
      "geometry": {
        "type": "Polygon",
        "coordinates": [
          [
            [
              56.72997652532749,
              26.831605619733246
            ],
            [
              56.781976525327494,
              26.831605619733246
            ],
            [
              56.781976525327494,
              26.877605619733245
            ],
            [
              56.72997652532749,
              26.877605619733245
            ],
            [
              56.72997652532749,
              26.831605619733246
            ]
          ]
        ]
      },
      "properties": {
        "rank": 16,
        "label": "negative",
        "context": "qeshm_hengam_context",
        "score": 2.346687081568453,
        "dark_frac": 0.12000274658203125,
        "largest_dark": 0.002044677734375,
        "edge_touch": 0.0,
        "tile_name": "S1C_20260808T141633_preprocessed_r8704_c12800_uncertain.npz"
      }
    },
    {
      "type": "Feature",
      "geometry": {
        "type": "Polygon",
        "coordinates": [
          [
            [
              56.72987724980456,
              26.87783240857888
            ],
            [
              56.781877249804566,
              26.87783240857888
            ],
            [
              56.781877249804566,
              26.92383240857888
            ],
            [
              56.72987724980456,
              26.92383240857888
            ],
            [
              56.72987724980456,
              26.87783240857888
            ]
          ]
        ]
      },
      "properties": {
        "rank": 17,
        "label": "negative",
        "context": "qeshm_hengam_context",
        "score": 2.324715707081645,
        "dark_frac": 0.12000274658203125,
        "largest_dark": 0.001804351806640625,
        "edge_touch": 0.39957716701902746,
        "tile_name": "S1C_20260808T141633_preprocessed_r8192_c12800_uncertain.npz"
      }
    },
    {
      "type": "Feature",
      "geometry": {
        "type": "Polygon",
        "coordinates": [
          [
            [
              56.52364217503699,
              26.877325387494867
            ],
            [
              56.575642175037,
              26.877325387494867
            ],
            [
              56.575642175037,
              26.923325387494867
            ],
            [
              56.52364217503699,
              26.923325387494867
            ],
            [
              56.52364217503699,
              26.877325387494867
            ]
          ]
        ]
      },
      "properties": {
        "rank": 18,
        "label": "negative",
        "context": "qeshm_hengam_context",
        "score": 2.3085666017471502,
        "dark_frac": 0.12000274658203125,
        "largest_dark": 0.0018310546875,
        "edge_touch": 0.0,
        "tile_name": "S1C_20260808T141633_preprocessed_r8192_c10752_uncertain.npz"
      }
    },
    {
      "type": "Feature",
      "geometry": {
        "type": "Polygon",
        "coordinates": [
          [
            [
              56.78135824507804,
              26.924138757322808
            ],
            [
              56.833358245078045,
              26.924138757322808
            ],
            [
              56.833358245078045,
              26.970138757322808
            ],
            [
              56.78135824507804,
              26.970138757322808
            ],
            [
              56.78135824507804,
              26.924138757322808
            ]
          ]
        ]
      },
      "properties": {
        "rank": 19,
        "label": "negative",
        "context": "qeshm_hengam_context",
        "score": 2.299165009015961,
        "dark_frac": 0.12000274658203125,
        "largest_dark": 0.00255584716796875,
        "edge_touch": 0.2462686567164179,
        "tile_name": "S1C_20260808T141633_preprocessed_r7680_c13312_uncertain.npz"
      }
    },
    {
      "type": "Feature",
      "geometry": {
        "type": "Polygon",
        "coordinates": [
          [
            [
              56.626900240595674,
              26.83139017886002
            ],
            [
              56.67890024059568,
              26.83139017886002
            ],
            [
              56.67890024059568,
              26.87739017886002
            ],
            [
              56.626900240595674,
              26.87739017886002
            ],
            [
              56.626900240595674,
              26.83139017886002
            ]
          ]
        ]
      },
      "properties": {
        "rank": 20,
        "label": "positive",
        "context": "qeshm_hengam_context",
        "score": 2.2865196144963478,
        "dark_frac": 0.12000274658203125,
        "largest_dark": 0.005092620849609375,
        "edge_touch": 0.18576779026217227,
        "tile_name": "S1C_20260808T141633_preprocessed_r8704_c11776_uncertain.npz"
      }
    },
    {
      "type": "Feature",
      "geometry": {
        "type": "Polygon",
        "coordinates": [
          [
            [
              56.57520040857302,
              26.877480372577658
            ],
            [
              56.627200408573025,
              26.877480372577658
            ],
            [
              56.627200408573025,
              26.923480372577657
            ],
            [
              56.57520040857302,
              26.923480372577657
            ],
            [
              56.57520040857302,
              26.877480372577658
            ]
          ]
        ]
      },
      "properties": {
        "rank": 21,
        "label": "negative",
        "context": "qeshm_hengam_context",
        "score": 2.2728440948639137,
        "dark_frac": 0.12000274658203125,
        "largest_dark": 0.002780914306640625,
        "edge_touch": 0.0,
        "tile_name": "S1C_20260808T141633_preprocessed_r8192_c11264_uncertain.npz"
      }
    },
    {
      "type": "Feature",
      "geometry": {
        "type": "Polygon",
        "coordinates": [
          [
            [
              56.093245146201646,
              27.00435282165892
            ],
            [
              56.14524514620165,
              27.00435282165892
            ],
            [
              56.14524514620165,
              27.05035282165892
            ],
            [
              56.093245146201646,
              27.05035282165892
            ],
            [
              56.093245146201646,
              27.00435282165892
            ]
          ]
        ]
      },
      "properties": {
        "rank": 22,
        "label": "positive",
        "context": "qeshm_hengam_context",
        "score": 2.2585067341001315,
        "dark_frac": 0.12000274658203125,
        "largest_dark": 0.006595611572265625,
        "edge_touch": 0.0,
        "tile_name": "S1D_20260810T021454_preprocessed_r4096_c20480_uncertain.npz"
      }
    },
    {
      "type": "Feature",
      "geometry": {
        "type": "Polygon",
        "coordinates": [
          [
            [
              56.78151505075792,
              26.831685165249613
            ],
            [
              56.833515050757924,
              26.831685165249613
            ],
            [
              56.833515050757924,
              26.877685165249613
            ],
            [
              56.78151505075792,
              26.877685165249613
            ],
            [
              56.78151505075792,
              26.831685165249613
            ]
          ]
        ]
      },
      "properties": {
        "rank": 23,
        "label": "negative",
        "context": "qeshm_hengam_context",
        "score": 2.252531813502675,
        "dark_frac": 0.12000274658203125,
        "largest_dark": 0.002685546875,
        "edge_touch": 0.0,
        "tile_name": "S1C_20260808T141633_preprocessed_r8704_c13312_uncertain.npz"
      }
    },
    {
      "type": "Feature",
      "geometry": {
        "type": "Polygon",
        "coordinates": [
          [
            [
              56.6264755959506,
              26.970068346306803
            ],
            [
              56.67847559595061,
              26.970068346306803
            ],
            [
              56.67847559595061,
              27.016068346306803
            ],
            [
              56.6264755959506,
              27.016068346306803
            ],
            [
              56.6264755959506,
              26.970068346306803
            ]
          ]
        ]
      },
      "properties": {
        "rank": 24,
        "label": "positive",
        "context": "qeshm_hengam_context",
        "score": 2.2513345718668725,
        "dark_frac": 0.12000274658203125,
        "largest_dark": 0.00460052490234375,
        "edge_touch": 0.0,
        "tile_name": "S1C_20260808T141633_preprocessed_r7168_c11776_uncertain.npz"
      }
    },
    {
      "type": "Feature",
      "geometry": {
        "type": "Polygon",
        "coordinates": [
          [
            [
              56.52382531326948,
              26.831099607647136
            ],
            [
              56.57582531326948,
              26.831099607647136
            ],
            [
              56.57582531326948,
              26.877099607647136
            ],
            [
              56.52382531326948,
              26.877099607647136
            ],
            [
              56.52382531326948,
              26.831099607647136
            ]
          ]
        ]
      },
      "properties": {
        "rank": 25,
        "label": "negative",
        "context": "qeshm_hengam_context",
        "score": 2.230697654178299,
        "dark_frac": 0.12000274658203125,
        "largest_dark": 0.003032684326171875,
        "edge_touch": 0.0,
        "tile_name": "S1C_20260808T141633_preprocessed_r8704_c10752_uncertain.npz"
      }
    },
    {
      "type": "Feature",
      "geometry": {
        "type": "Polygon",
        "coordinates": [
          [
            [
              56.42030147396687,
              26.92318370734415
            ],
            [
              56.47230147396688,
              26.92318370734415
            ],
            [
              56.47230147396688,
              26.96918370734415
            ],
            [
              56.42030147396687,
              26.96918370734415
            ],
            [
              56.42030147396687,
              26.92318370734415
            ]
          ]
        ]
      },
      "properties": {
        "rank": 26,
        "label": "negative",
        "context": "qeshm_hengam_context",
        "score": 2.230561268627468,
        "dark_frac": 0.12000274658203125,
        "largest_dark": 0.004840850830078125,
        "edge_touch": 0.5130023640661938,
        "tile_name": "S1C_20260808T141633_preprocessed_r7680_c9728_uncertain.npz"
      }
    },
    {
      "type": "Feature",
      "geometry": {
        "type": "Polygon",
        "coordinates": [
          [
            [
              56.62675903252731,
              26.8776165381113
            ],
            [
              56.67875903252732,
              26.8776165381113
            ],
            [
              56.67875903252732,
              26.9236165381113
            ],
            [
              56.62675903252731,
              26.9236165381113
            ],
            [
              56.62675903252731,
              26.8776165381113
            ]
          ]
        ]
      },
      "properties": {
        "rank": 27,
        "label": "positive",
        "context": "qeshm_hengam_context",
        "score": 2.2304253239029608,
        "dark_frac": 0.12000274658203125,
        "largest_dark": 0.00408172607421875,
        "edge_touch": 0.0,
        "tile_name": "S1C_20260808T141633_preprocessed_r8192_c11776_uncertain.npz"
      }
    },
    {
      "type": "Feature",
      "geometry": {
        "type": "Polygon",
        "coordinates": [
          [
            [
              56.78127955912157,
              26.97036509872902
            ],
            [
              56.83327955912158,
              26.97036509872902
            ],
            [
              56.83327955912158,
              27.01636509872902
            ],
            [
              56.78127955912157,
              27.01636509872902
            ],
            [
              56.78127955912157,
              26.97036509872902
            ]
          ]
        ]
      },
      "properties": {
        "rank": 28,
        "label": "negative",
        "context": "qeshm_hengam_context",
        "score": 2.202830952127212,
        "dark_frac": 0.12000274658203125,
        "largest_dark": 0.0028076171875,
        "edge_touch": 0.0,
        "tile_name": "S1C_20260808T141633_preprocessed_r7168_c13312_uncertain.npz"
      }
    },
    {
      "type": "Feature",
      "geometry": {
        "type": "Polygon",
        "coordinates": [
          [
            [
              56.4205270810922,
              26.876958961053298
            ],
            [
              56.47252708109221,
              26.876958961053298
            ],
            [
              56.47252708109221,
              26.922958961053297
            ],
            [
              56.4205270810922,
              26.922958961053297
            ],
            [
              56.4205270810922,
              26.876958961053298
            ]
          ]
        ]
      },
      "properties": {
        "rank": 29,
        "label": "positive",
        "context": "qeshm_hengam_context",
        "score": 2.199113353292239,
        "dark_frac": 0.12000274658203125,
        "largest_dark": 0.0071563720703125,
        "edge_touch": 0.23720682302771856,
        "tile_name": "S1C_20260808T141633_preprocessed_r8192_c9728_uncertain.npz"
      }
    },
    {
      "type": "Feature",
      "geometry": {
        "type": "Polygon",
        "coordinates": [
          [
            [
              56.6270411093118,
              26.785163516648865
            ],
            [
              56.679041109311804,
              26.785163516648865
            ],
            [
              56.679041109311804,
              26.831163516648864
            ],
            [
              56.6270411093118,
              26.831163516648864
            ],
            [
              56.6270411093118,
              26.785163516648865
            ]
          ]
        ]
      },
      "properties": {
        "rank": 30,
        "label": "negative",
        "context": "qeshm_hengam_context",
        "score": 2.1688364279393797,
        "dark_frac": 0.12000274658203125,
        "largest_dark": 0.00360870361328125,
        "edge_touch": 0.45560253699788583,
        "tile_name": "S1C_20260808T141633_preprocessed_r9216_c11776_uncertain.npz"
      }
    },
    {
      "type": "Feature",
      "geometry": {
        "type": "Polygon",
        "coordinates": [
          [
            [
              57.45387682770202,
              27.38569700357388
            ],
            [
              57.505876827702025,
              27.38569700357388
            ],
            [
              57.505876827702025,
              27.43169700357388
            ],
            [
              57.45387682770202,
              27.43169700357388
            ],
            [
              57.45387682770202,
              27.38569700357388
            ]
          ]
        ]
      },
      "properties": {
        "rank": 31,
        "label": "negative",
        "context": "outside_primary_context",
        "score": 2.167201695385804,
        "dark_frac": 0.12000274658203125,
        "largest_dark": 0.040813446044921875,
        "edge_touch": 0.15440695392092718,
        "tile_name": "S1C_20260808T141633_preprocessed_r2560_c19968_uncertain.npz"
      }
    },
    {
      "type": "Feature",
      "geometry": {
        "type": "Polygon",
        "coordinates": [
          [
            [
              56.833110967880344,
              26.785518556047546
            ],
            [
              56.88511096788035,
              26.785518556047546
            ],
            [
              56.88511096788035,
              26.831518556047545
            ],
            [
              56.833110967880344,
              26.831518556047545
            ],
            [
              56.833110967880344,
              26.785518556047546
            ]
          ]
        ]
      },
      "properties": {
        "rank": 32,
        "label": "negative",
        "context": "qeshm_hengam_context",
        "score": 2.15842937130097,
        "dark_frac": 0.12000274658203125,
        "largest_dark": 0.002964019775390625,
        "edge_touch": 0.19047619047619047,
        "tile_name": "S1C_20260808T141633_preprocessed_r9216_c13824_uncertain.npz"
      }
    },
    {
      "type": "Feature",
      "geometry": {
        "type": "Polygon",
        "coordinates": [
          [
            [
              56.67843823847796,
              26.83150729081508
            ],
            [
              56.730438238477966,
              26.83150729081508
            ],
            [
              56.730438238477966,
              26.87750729081508
            ],
            [
              56.67843823847796,
              26.87750729081508
            ],
            [
              56.67843823847796,
              26.83150729081508
            ]
          ]
        ]
      },
      "properties": {
        "rank": 33,
        "label": "positive",
        "context": "qeshm_hengam_context",
        "score": 2.1524960272618543,
        "dark_frac": 0.12000274658203125,
        "largest_dark": 0.004528045654296875,
        "edge_touch": 0.21566975568660487,
        "tile_name": "S1C_20260808T141633_preprocessed_r8704_c12288_uncertain.npz"
      }
    },
    {
      "type": "Feature",
      "geometry": {
        "type": "Polygon",
        "coordinates": [
          [
            [
              56.29969701831692,
              27.005493048934238
            ],
            [
              56.351697018316926,
              27.005493048934238
            ],
            [
              56.351697018316926,
              27.051493048934237
            ],
            [
              56.29969701831692,
              27.051493048934237
            ],
            [
              56.29969701831692,
              27.005493048934238
            ]
          ]
        ]
      },
      "properties": {
        "rank": 34,
        "label": "positive",
        "context": "qeshm_hengam_context",
        "score": 2.139718125579485,
        "dark_frac": 0.12000274658203125,
        "largest_dark": 0.009845733642578125,
        "edge_touch": 0.34521503293297173,
        "tile_name": "S1D_20260810T021454_preprocessed_r4096_c22528_uncertain.npz"
      }
    },
    {
      "type": "Feature",
      "geometry": {
        "type": "Polygon",
        "coordinates": [
          [
            [
              56.78159317114276,
              26.785457915293307
            ],
            [
              56.833593171142766,
              26.785457915293307
            ],
            [
              56.833593171142766,
              26.831457915293306
            ],
            [
              56.78159317114276,
              26.831457915293306
            ],
            [
              56.78159317114276,
              26.785457915293307
            ]
          ]
        ]
      },
      "properties": {
        "rank": 35,
        "label": "negative",
        "context": "qeshm_hengam_context",
        "score": 2.1376951229326995,
        "dark_frac": 0.12000274658203125,
        "largest_dark": 0.001766204833984375,
        "edge_touch": 0.0,
        "tile_name": "S1C_20260808T141633_preprocessed_r9216_c13312_uncertain.npz"
      }
    },
    {
      "type": "Feature",
      "geometry": {
        "type": "Polygon",
        "coordinates": [
          [
            [
              56.8330537643815,
              26.831745927069004
            ],
            [
              56.88505376438151,
              26.831745927069004
            ],
            [
              56.88505376438151,
              26.877745927069004
            ],
            [
              56.8330537643815,
              26.877745927069004
            ],
            [
              56.8330537643815,
              26.831745927069004
            ]
          ]
        ]
      },
      "properties": {
        "rank": 36,
        "label": "positive",
        "context": "qeshm_hengam_context",
        "score": 2.13530592538943,
        "dark_frac": 0.12000274658203125,
        "largest_dark": 0.007091522216796875,
        "edge_touch": 0.3265196342119419,
        "tile_name": "S1C_20260808T141633_preprocessed_r8704_c13824_uncertain.npz"
      }
    },
    {
      "type": "Feature",
      "geometry": {
        "type": "Polygon",
        "coordinates": [
          [
            [
              56.35156639068963,
              26.959507175847012
            ],
            [
              56.40356639068963,
              26.959507175847012
            ],
            [
              56.40356639068963,
              27.00550717584701
            ],
            [
              56.35156639068963,
              27.00550717584701
            ],
            [
              56.35156639068963,
              26.959507175847012
            ]
          ]
        ]
      },
      "properties": {
        "rank": 37,
        "label": "positive",
        "context": "qeshm_hengam_context",
        "score": 2.133708846444556,
        "dark_frac": 0.12000274658203125,
        "largest_dark": 0.024158477783203125,
        "edge_touch": 0.12284857097741986,
        "tile_name": "S1D_20260810T021454_preprocessed_r4608_c23040_uncertain.npz"
      }
    },
    {
      "type": "Feature",
      "geometry": {
        "type": "Polygon",
        "coordinates": [
          [
            [
              56.57552436582261,
              26.78502789285335
            ],
            [
              56.627524365822616,
              26.78502789285335
            ],
            [
              56.627524365822616,
              26.83102789285335
            ],
            [
              56.57552436582261,
              26.83102789285335
            ],
            [
              56.57552436582261,
              26.78502789285335
            ]
          ]
        ]
      },
      "properties": {
        "rank": 38,
        "label": "negative",
        "context": "qeshm_hengam_context",
        "score": 2.1267328693108207,
        "dark_frac": 0.12000274658203125,
        "largest_dark": 0.00260162353515625,
        "edge_touch": 0.0,
        "tile_name": "S1C_20260808T141633_preprocessed_r9216_c11264_uncertain.npz"
      }
    },
    {
      "type": "Feature",
      "geometry": {
        "type": "Polygon",
        "coordinates": [
          [
            [
              56.78143674217973,
              26.877912112711357
            ],
            [
              56.833436742179735,
              26.877912112711357
            ],
            [
              56.833436742179735,
              26.923912112711356
            ],
            [
              56.78143674217973,
              26.923912112711356
            ],
            [
              56.78143674217973,
              26.877912112711357
            ]
          ]
        ]
      },
      "properties": {
        "rank": 39,
        "label": "negative",
        "context": "qeshm_hengam_context",
        "score": 2.1185911220565563,
        "dark_frac": 0.12000274658203125,
        "largest_dark": 0.002895355224609375,
        "edge_touch": 0.0,
        "tile_name": "S1C_20260808T141633_preprocessed_r8192_c13312_uncertain.npz"
      }
    },
    {
      "type": "Feature",
      "geometry": {
        "type": "Polygon",
        "coordinates": [
          [
            [
              56.36822868138226,
              27.015419581106496
            ],
            [
              56.42022868138227,
              27.015419581106496
            ],
            [
              56.42022868138227,
              27.061419581106495
            ],
            [
              56.36822868138226,
              27.061419581106495
            ],
            [
              56.36822868138226,
              27.015419581106496
            ]
          ]
        ]
      },
      "properties": {
        "rank": 40,
        "label": "negative",
        "context": "qeshm_hengam_context",
        "score": 2.108816744708553,
        "dark_frac": 0.12000274658203125,
        "largest_dark": 0.024658203125,
        "edge_touch": 0.3500928217821782,
        "tile_name": "S1C_20260808T141633_preprocessed_r6656_c9216_uncertain.npz"
      }
    },
    {
      "type": "Feature",
      "geometry": {
        "type": "Polygon",
        "coordinates": [
          [
            [
              56.729477753509364,
              27.062736530651147
            ],
            [
              56.78147775350937,
              27.062736530651147
            ],
            [
              56.78147775350937,
              27.108736530651147
            ],
            [
              56.729477753509364,
              27.108736530651147
            ],
            [
              56.729477753509364,
              27.062736530651147
            ]
          ]
        ]
      },
      "properties": {
        "rank": 41,
        "label": "negative",
        "context": "qeshm_hengam_context",
        "score": 2.096155509711381,
        "dark_frac": 0.12000274658203125,
        "largest_dark": 0.0153350830078125,
        "edge_touch": 0.48756218905472637,
        "tile_name": "S1C_20260808T141633_preprocessed_r6144_c12800_uncertain.npz"
      }
    },
    {
      "type": "Feature",
      "geometry": {
        "type": "Polygon",
        "coordinates": [
          [
            [
              56.55811638525208,
              26.914042031291558
            ],
            [
              56.610116385252084,
              26.914042031291558
            ],
            [
              56.610116385252084,
              26.960042031291557
            ],
            [
              56.55811638525208,
              26.960042031291557
            ],
            [
              56.55811638525208,
              26.914042031291558
            ]
          ]
        ]
      },
      "properties": {
        "rank": 42,
        "label": "negative",
        "context": "qeshm_hengam_context",
        "score": 2.090360072121111,
        "dark_frac": 0.12000274658203125,
        "largest_dark": 0.003185272216796875,
        "edge_touch": 0.0,
        "tile_name": "S1D_20260810T021454_preprocessed_r5120_c25088_uncertain.npz"
      }
    },
    {
      "type": "Feature",
      "geometry": {
        "type": "Polygon",
        "coordinates": [
          [
            [
              56.52400801138657,
              26.78487352438121
            ],
            [
              56.57600801138658,
              26.78487352438121
            ],
            [
              56.57600801138658,
              26.83087352438121
            ],
            [
              56.52400801138657,
              26.83087352438121
            ],
            [
              56.52400801138657,
              26.78487352438121
            ]
          ]
        ]
      },
      "properties": {
        "rank": 43,
        "label": "negative",
        "context": "qeshm_hengam_context",
        "score": 2.0863587523874463,
        "dark_frac": 0.12000274658203125,
        "largest_dark": 0.002567291259765625,
        "edge_touch": 0.0,
        "tile_name": "S1C_20260808T141633_preprocessed_r9216_c10752_uncertain.npz"
      }
    },
    {
      "type": "Feature",
      "geometry": {
        "type": "Polygon",
        "coordinates": [
          [
            [
              56.788977605721634,
              26.66351651751874
            ],
            [
              56.84097760572164,
              26.66351651751874
            ],
            [
              56.84097760572164,
              26.70951651751874
            ],
            [
              56.788977605721634,
              26.70951651751874
            ],
            [
              56.788977605721634,
              26.66351651751874
            ]
          ]
        ]
      },
      "properties": {
        "rank": 44,
        "label": "positive",
        "context": "qeshm_hengam_context",
        "score": 2.073401124239685,
        "dark_frac": 0.12000274658203125,
        "largest_dark": 0.005496978759765625,
        "edge_touch": 0.12283136710617627,
        "tile_name": "S1D_20260805T020639_preprocessed_r8192_c6656_uncertain.npz"
      }
    },
    {
      "type": "Feature",
      "geometry": {
        "type": "Polygon",
        "coordinates": [
          [
            [
              56.57536258206529,
              26.831254284302616
            ],
            [
              56.627362582065295,
              26.831254284302616
            ],
            [
              56.627362582065295,
              26.877254284302616
            ],
            [
              56.57536258206529,
              26.877254284302616
            ],
            [
              56.57536258206529,
              26.831254284302616
            ]
          ]
        ]
      },
      "properties": {
        "rank": 45,
        "label": "negative",
        "context": "qeshm_hengam_context",
        "score": 2.0733632176443133,
        "dark_frac": 0.12000274658203125,
        "largest_dark": 0.0024566650390625,
        "edge_touch": 0.0,
        "tile_name": "S1C_20260808T141633_preprocessed_r8704_c11264_uncertain.npz"
      }
    },
    {
      "type": "Feature",
      "geometry": {
        "type": "Polygon",
        "coordinates": [
          [
            [
              56.42097667084059,
              26.78450855576661
            ],
            [
              56.472976670840595,
              26.78450855576661
            ],
            [
              56.472976670840595,
              26.83050855576661
            ],
            [
              56.42097667084059,
              26.83050855576661
            ],
            [
              56.42097667084059,
              26.78450855576661
            ]
          ]
        ]
      },
      "properties": {
        "rank": 46,
        "label": "negative",
        "context": "qeshm_hengam_context",
        "score": 2.0625395846951777,
        "dark_frac": 0.12000274658203125,
        "largest_dark": 0.00366973876953125,
        "edge_touch": 0.0,
        "tile_name": "S1C_20260808T141633_preprocessed_r9216_c9728_uncertain.npz"
      }
    },
    {
      "type": "Feature",
      "geometry": {
        "type": "Polygon",
        "coordinates": [
          [
            [
              56.678317996428845,
              26.877733883590267
            ],
            [
              56.73031799642885,
              26.877733883590267
            ],
            [
              56.73031799642885,
              26.923733883590266
            ],
            [
              56.678317996428845,
              26.923733883590266
            ],
            [
              56.678317996428845,
              26.877733883590267
            ]
          ]
        ]
      },
      "properties": {
        "rank": 47,
        "label": "negative",
        "context": "qeshm_hengam_context",
        "score": 2.0596890068446854,
        "dark_frac": 0.12000274658203125,
        "largest_dark": 0.003955841064453125,
        "edge_touch": 0.1485053037608486,
        "tile_name": "S1C_20260808T141633_preprocessed_r8192_c12288_uncertain.npz"
      }
    },
    {
      "type": "Feature",
      "geometry": {
        "type": "Polygon",
        "coordinates": [
          [
            [
              56.01999359293113,
              27.019822755949377
            ],
            [
              56.071993592931136,
              27.019822755949377
            ],
            [
              56.071993592931136,
              27.065822755949377
            ],
            [
              56.01999359293113,
              27.065822755949377
            ],
            [
              56.01999359293113,
              27.019822755949377
            ]
          ]
        ]
      },
      "properties": {
        "rank": 48,
        "label": "positive",
        "context": "qeshm_hengam_context",
        "score": 2.012056630232278,
        "dark_frac": 0.12000274658203125,
        "largest_dark": 0.011119842529296875,
        "edge_touch": 0.16260720411663807,
        "tile_name": "S1C_IW_GRDH_1SDV_20260804T021408_20260804T021438_r8192_c18944_uncertain.npz"
      }
    },
    {
      "type": "Feature",
      "geometry": {
        "type": "Polygon",
        "coordinates": [
          [
            [
              56.83293894372871,
              26.92419976156033
            ],
            [
              56.88493894372872,
              26.92419976156033
            ],
            [
              56.88493894372872,
              26.97019976156033
            ],
            [
              56.83293894372871,
              26.97019976156033
            ],
            [
              56.83293894372871,
              26.92419976156033
            ]
          ]
        ]
      },
      "properties": {
        "rank": 49,
        "label": "negative",
        "context": "qeshm_hengam_context",
        "score": 2.0107005087265346,
        "dark_frac": 0.12000274658203125,
        "largest_dark": 0.0025634765625,
        "edge_touch": 0.0,
        "tile_name": "S1C_20260808T141633_preprocessed_r7680_c13824_uncertain.npz"
      }
    },
    {
      "type": "Feature",
      "geometry": {
        "type": "Polygon",
        "coordinates": [
          [
            [
              56.12288123403439,
              27.066705608681243
            ],
            [
              56.174881234034395,
              27.066705608681243
            ],
            [
              56.174881234034395,
              27.112705608681242
            ],
            [
              56.12288123403439,
              27.112705608681242
            ],
            [
              56.12288123403439,
              27.066705608681243
            ]
          ]
        ]
      },
      "properties": {
        "rank": 50,
        "label": "positive",
        "context": "qeshm_hengam_context",
        "score": 2.004773022568174,
        "dark_frac": 0.12000274658203125,
        "largest_dark": 0.005016326904296875,
        "edge_touch": 0.0,
        "tile_name": "S1C_IW_GRDH_1SDV_20260804T021408_20260804T021438_r7680_c19968_uncertain.npz"
      }
    },
    {
      "type": "Feature",
      "geometry": {
        "type": "Polygon",
        "coordinates": [
          [
            [
              56.73007556226928,
              26.785378528267568
            ],
            [
              56.782075562269284,
              26.785378528267568
            ],
            [
              56.782075562269284,
              26.831378528267567
            ],
            [
              56.73007556226928,
              26.831378528267567
            ],
            [
              56.73007556226928,
              26.785378528267568
            ]
          ]
        ]
      },
      "properties": {
        "rank": 51,
        "label": "negative",
        "context": "qeshm_hengam_context",
        "score": 1.9944936135629656,
        "dark_frac": 0.12000274658203125,
        "largest_dark": 0.002960205078125,
        "edge_touch": 0.0,
        "tile_name": "S1C_20260808T141633_preprocessed_r9216_c12800_uncertain.npz"
      }
    },
    {
      "type": "Feature",
      "geometry": {
        "type": "Polygon",
        "coordinates": [
          [
            [
              56.574711542838,
              27.0161568147847
            ],
            [
              56.62671154283801,
              27.0161568147847
            ],
            [
              56.62671154283801,
              27.0621568147847
            ],
            [
              56.574711542838,
              27.0621568147847
            ],
            [
              56.574711542838,
              27.0161568147847
            ]
          ]
        ]
      },
      "properties": {
        "rank": 52,
        "label": "negative",
        "context": "qeshm_hengam_context",
        "score": 1.9743143319405665,
        "dark_frac": 0.12000274658203125,
        "largest_dark": 0.002044677734375,
        "edge_touch": 0.0,
        "tile_name": "S1C_20260808T141633_preprocessed_r6656_c11264_uncertain.npz"
      }
    },
    {
      "type": "Feature",
      "geometry": {
        "type": "Polygon",
        "coordinates": [
          [
            [
              56.248082929698285,
              27.00523637019825
            ],
            [
              56.30008292969829,
              27.00523637019825
            ],
            [
              56.30008292969829,
              27.05123637019825
            ],
            [
              56.248082929698285,
              27.05123637019825
            ],
            [
              56.248082929698285,
              27.00523637019825
            ]
          ]
        ]
      },
      "properties": {
        "rank": 53,
        "label": "negative",
        "context": "qeshm_hengam_context",
        "score": 1.9692638322098028,
        "dark_frac": 0.12000274658203125,
        "largest_dark": 0.004528045654296875,
        "edge_touch": 0.5223251895534962,
        "tile_name": "S1D_20260810T021454_preprocessed_r4096_c22016_uncertain.npz"
      }
    },
    {
      "type": "Feature",
      "geometry": {
        "type": "Polygon",
        "coordinates": [
          [
            [
              55.68458142163131,
              26.63143915023084
            ],
            [
              55.736581421631314,
              26.63143915023084
            ],
            [
              55.736581421631314,
              26.67743915023084
            ],
            [
              55.68458142163131,
              26.67743915023084
            ],
            [
              55.68458142163131,
              26.63143915023084
            ]
          ]
        ]
      },
      "properties": {
        "rank": 54,
        "label": "positive",
        "context": "qeshm_hengam_context",
        "score": 1.9666729866010748,
        "dark_frac": 0.12000274658203125,
        "largest_dark": 0.0096435546875,
        "edge_touch": 0.07278481012658228,
        "tile_name": "S1D_20260810T021454_preprocessed_r8192_c16384_uncertain.npz"
      }
    },
    {
      "type": "Feature",
      "geometry": {
        "type": "Polygon",
        "coordinates": [
          [
            [
              56.29997274136196,
              26.959269889051303
            ],
            [
              56.35197274136197,
              26.959269889051303
            ],
            [
              56.35197274136197,
              27.005269889051302
            ],
            [
              56.29997274136196,
              27.005269889051302
            ],
            [
              56.29997274136196,
              26.959269889051303
            ]
          ]
        ]
      },
      "properties": {
        "rank": 55,
        "label": "positive",
        "context": "qeshm_hengam_context",
        "score": 1.950031061557585,
        "dark_frac": 0.12000274658203125,
        "largest_dark": 0.0226287841796875,
        "edge_touch": 0.2203304113283884,
        "tile_name": "S1D_20260810T021454_preprocessed_r4608_c22528_uncertain.npz"
      }
    },
    {
      "type": "Feature",
      "geometry": {
        "type": "Polygon",
        "coordinates": [
          [
            [
              56.1448569429474,
              27.00466625550091
            ],
            [
              56.196856942947406,
              27.00466625550091
            ],
            [
              56.196856942947406,
              27.05066625550091
            ],
            [
              56.1448569429474,
              27.05066625550091
            ],
            [
              56.1448569429474,
              27.00466625550091
            ]
          ]
        ]
      },
      "properties": {
        "rank": 56,
        "label": "positive",
        "context": "qeshm_hengam_context",
        "score": 1.9254067753156936,
        "dark_frac": 0.12000274658203125,
        "largest_dark": 0.009197235107421875,
        "edge_touch": 0.0,
        "tile_name": "S1D_20260810T021454_preprocessed_r4096_c20992_uncertain.npz"
      }
    },
    {
      "type": "Feature",
      "geometry": {
        "type": "Polygon",
        "coordinates": [
          [
            [
              56.35131176949945,
              27.005730807299347
            ],
            [
              56.40331176949946,
              27.005730807299347
            ],
            [
              56.40331176949946,
              27.051730807299347
            ],
            [
              56.35131176949945,
              27.051730807299347
            ],
            [
              56.35131176949945,
              27.005730807299347
            ]
          ]
        ]
      },
      "properties": {
        "rank": 57,
        "label": "negative",
        "context": "qeshm_hengam_context",
        "score": 1.925372985371557,
        "dark_frac": 0.12000274658203125,
        "largest_dark": 0.0066375732421875,
        "edge_touch": 0.4011494252873563,
        "tile_name": "S1D_20260810T021454_preprocessed_r4096_c23040_uncertain.npz"
      }
    },
    {
      "type": "Feature",
      "geometry": {
        "type": "Polygon",
        "coordinates": [
          [
            [
              55.63368588647017,
              26.584747061169097
            ],
            [
              55.685685886470175,
              26.584747061169097
            ],
            [
              55.685685886470175,
              26.630747061169096
            ],
            [
              55.63368588647017,
              26.630747061169096
            ],
            [
              55.63368588647017,
              26.584747061169097
            ]
          ]
        ]
      },
      "properties": {
        "rank": 58,
        "label": "positive",
        "context": "qeshm_hengam_context",
        "score": 1.917154210497397,
        "dark_frac": 0.12000274658203125,
        "largest_dark": 0.009033203125,
        "edge_touch": 0.0,
        "tile_name": "S1D_20260810T021454_preprocessed_r8704_c15872_uncertain.npz"
      }
    },
    {
      "type": "Feature",
      "geometry": {
        "type": "Polygon",
        "coordinates": [
          [
            [
              56.40316065080144,
              26.9597255789146
            ],
            [
              56.455160650801446,
              26.9597255789146
            ],
            [
              56.455160650801446,
              27.0057255789146
            ],
            [
              56.40316065080144,
              27.0057255789146
            ],
            [
              56.40316065080144,
              26.9597255789146
            ]
          ]
        ]
      },
      "properties": {
        "rank": 59,
        "label": "positive",
        "context": "qeshm_hengam_context",
        "score": 1.910097832421416,
        "dark_frac": 0.12000274658203125,
        "largest_dark": 0.0110321044921875,
        "edge_touch": 0.23616874135546334,
        "tile_name": "S1D_20260810T021454_preprocessed_r4608_c23552_uncertain.npz"
      }
    },
    {
      "type": "Feature",
      "geometry": {
        "type": "Polygon",
        "coordinates": [
          [
            [
              56.832996423078214,
              26.87797299569176
            ],
            [
              56.88499642307822,
              26.87797299569176
            ],
            [
              56.88499642307822,
              26.92397299569176
            ],
            [
              56.832996423078214,
              26.92397299569176
            ],
            [
              56.832996423078214,
              26.87797299569176
            ]
          ]
        ]
      },
      "properties": {
        "rank": 60,
        "label": "positive",
        "context": "qeshm_hengam_context",
        "score": 1.903953595090144,
        "dark_frac": 0.12000274658203125,
        "largest_dark": 0.004913330078125,
        "edge_touch": 0.0,
        "tile_name": "S1C_20260808T141633_preprocessed_r8192_c13824_uncertain.npz"
      }
    },
    {
      "type": "Feature",
      "geometry": {
        "type": "Polygon",
        "coordinates": [
          [
            [
              56.52309011191357,
              27.016000902949195
            ],
            [
              56.575090111913575,
              27.016000902949195
            ],
            [
              56.575090111913575,
              27.062000902949194
            ],
            [
              56.52309011191357,
              27.062000902949194
            ],
            [
              56.52309011191357,
              27.016000902949195
            ]
          ]
        ]
      },
      "properties": {
        "rank": 61,
        "label": "negative",
        "context": "qeshm_hengam_context",
        "score": 1.8945603532840307,
        "dark_frac": 0.12000274658203125,
        "largest_dark": 0.0031585693359375,
        "edge_touch": 0.0,
        "tile_name": "S1C_20260808T141633_preprocessed_r6656_c10752_uncertain.npz"
      }
    },
    {
      "type": "Feature",
      "geometry": {
        "type": "Polygon",
        "coordinates": [
          [
            [
              56.88455624202279,
              26.87801505729405
            ],
            [
              56.936556242022796,
              26.87801505729405
            ],
            [
              56.936556242022796,
              26.92401505729405
            ],
            [
              56.88455624202279,
              26.92401505729405
            ],
            [
              56.88455624202279,
              26.87801505729405
            ]
          ]
        ]
      },
      "properties": {
        "rank": 62,
        "label": "negative",
        "context": "outside_primary_context",
        "score": 1.8815056881425705,
        "dark_frac": 0.12000274658203125,
        "largest_dark": 0.00266265869140625,
        "edge_touch": 0.0,
        "tile_name": "S1C_20260808T141633_preprocessed_r8192_c14336_uncertain.npz"
      }
    },
    {
      "type": "Feature",
      "geometry": {
        "type": "Polygon",
        "coordinates": [
          [
            [
              56.609691526574125,
              26.914184608341106
            ],
            [
              56.66169152657413,
              26.914184608341106
            ],
            [
              56.66169152657413,
              26.960184608341105
            ],
            [
              56.609691526574125,
              26.960184608341105
            ],
            [
              56.609691526574125,
              26.914184608341106
            ]
          ]
        ]
      },
      "properties": {
        "rank": 63,
        "label": "positive",
        "context": "qeshm_hengam_context",
        "score": 1.880753556219808,
        "dark_frac": 0.12000274658203125,
        "largest_dark": 0.004207611083984375,
        "edge_touch": 0.0,
        "tile_name": "S1D_20260810T021454_preprocessed_r5120_c25600_uncertain.npz"
      }
    },
    {
      "type": "Feature",
      "geometry": {
        "type": "Polygon",
        "coordinates": [
          [
            [
              56.73703504588185,
              26.894576691156875
            ],
            [
              56.78903504588186,
              26.894576691156875
            ],
            [
              56.78903504588186,
              26.940576691156874
            ],
            [
              56.73703504588185,
              26.940576691156874
            ],
            [
              56.73703504588185,
              26.894576691156875
            ]
          ]
        ]
      },
      "properties": {
        "rank": 64,
        "label": "positive",
        "context": "qeshm_hengam_context",
        "score": 1.876027731979685,
        "dark_frac": 0.12000274658203125,
        "largest_dark": 0.00424957275390625,
        "edge_touch": 0.0,
        "tile_name": "S1D_20260805T020639_preprocessed_r5632_c6144_uncertain.npz"
      }
    },
    {
      "type": "Feature",
      "geometry": {
        "type": "Polygon",
        "coordinates": [
          [
            [
              56.678558191559546,
              26.78528039526477
            ],
            [
              56.73055819155955,
              26.78528039526477
            ],
            [
              56.73055819155955,
              26.83128039526477
            ],
            [
              56.678558191559546,
              26.83128039526477
            ],
            [
              56.678558191559546,
              26.78528039526477
            ]
          ]
        ]
      },
      "properties": {
        "rank": 65,
        "label": "positive",
        "context": "qeshm_hengam_context",
        "score": 1.873731458477646,
        "dark_frac": 0.12000274658203125,
        "largest_dark": 0.005535125732421875,
        "edge_touch": 0.0,
        "tile_name": "S1C_20260808T141633_preprocessed_r9216_c12288_uncertain.npz"
      }
    },
    {
      "type": "Feature",
      "geometry": {
        "type": "Polygon",
        "coordinates": [
          [
            [
              56.45496737587518,
              26.913700330643625
            ],
            [
              56.506967375875185,
              26.913700330643625
            ],
            [
              56.506967375875185,
              26.959700330643624
            ],
            [
              56.45496737587518,
              26.959700330643624
            ],
            [
              56.45496737587518,
              26.913700330643625
            ]
          ]
        ]
      },
      "properties": {
        "rank": 66,
        "label": "positive",
        "context": "qeshm_hengam_context",
        "score": 1.855832396108642,
        "dark_frac": 0.12000274658203125,
        "largest_dark": 0.0174102783203125,
        "edge_touch": 0.16849255039439087,
        "tile_name": "S1D_20260810T021454_preprocessed_r5120_c24064_uncertain.npz"
      }
    },
    {
      "type": "Feature",
      "geometry": {
        "type": "Polygon",
        "coordinates": [
          [
            [
              56.41939360820818,
              27.108079641784965
            ],
            [
              56.47139360820819,
              27.108079641784965
            ],
            [
              56.47139360820819,
              27.154079641784964
            ],
            [
              56.41939360820818,
              27.154079641784964
            ],
            [
              56.41939360820818,
              27.108079641784965
            ]
          ]
        ]
      },
      "properties": {
        "rank": 67,
        "label": "positive",
        "context": "qeshm_hengam_context",
        "score": 1.842883585977244,
        "dark_frac": 0.12000274658203125,
        "largest_dark": 0.03711700439453125,
        "edge_touch": 0.13257965056526208,
        "tile_name": "S1C_20260808T141633_preprocessed_r5632_c9728_uncertain.npz"
      }
    },
    {
      "type": "Feature",
      "geometry": {
        "type": "Polygon",
        "coordinates": [
          [
            [
              56.472084382388,
              26.877151583438334
            ],
            [
              56.524084382388004,
              26.877151583438334
            ],
            [
              56.524084382388004,
              26.923151583438333
            ],
            [
              56.472084382388,
              26.923151583438333
            ],
            [
              56.472084382388,
              26.877151583438334
            ]
          ]
        ]
      },
      "properties": {
        "rank": 68,
        "label": "negative",
        "context": "qeshm_hengam_context",
        "score": 1.8416595130864435,
        "dark_frac": 0.12000274658203125,
        "largest_dark": 0.003993988037109375,
        "edge_touch": 0.5186246418338109,
        "tile_name": "S1C_20260808T141633_preprocessed_r8192_c10240_uncertain.npz"
      }
    },
    {
      "type": "Feature",
      "geometry": {
        "type": "Polygon",
        "coordinates": [
          [
            [
              56.78890287970361,
              26.7097445828514
            ],
            [
              56.84090287970362,
              26.7097445828514
            ],
            [
              56.84090287970362,
              26.7557445828514
            ],
            [
              56.78890287970361,
              26.7557445828514
            ],
            [
              56.78890287970361,
              26.7097445828514
            ]
          ]
        ]
      },
      "properties": {
        "rank": 69,
        "label": "negative",
        "context": "qeshm_hengam_context",
        "score": 1.8412901450954973,
        "dark_frac": 0.12000274658203125,
        "largest_dark": 0.01857757568359375,
        "edge_touch": 0.47412731006160164,
        "tile_name": "S1D_20260805T020639_preprocessed_r7680_c6656_uncertain.npz"
      }
    },
    {
      "type": "Feature",
      "geometry": {
        "type": "Polygon",
        "coordinates": [
          [
            [
              56.68605243515506,
              26.66334513385353
            ],
            [
              56.73805243515507,
              26.66334513385353
            ],
            [
              56.73805243515507,
              26.709345133853528
            ],
            [
              56.68605243515506,
              26.709345133853528
            ],
            [
              56.68605243515506,
              26.66334513385353
            ]
          ]
        ]
      },
      "properties": {
        "rank": 70,
        "label": "positive",
        "context": "qeshm_hengam_context",
        "score": 1.8387599528776688,
        "dark_frac": 0.12000274658203125,
        "largest_dark": 0.004611968994140625,
        "edge_touch": 0.0,
        "tile_name": "S1D_20260805T020639_preprocessed_r8192_c5632_uncertain.npz"
      }
    },
    {
      "type": "Feature",
      "geometry": {
        "type": "Polygon",
        "coordinates": [
          [
            [
              56.712842829783085,
              26.914413213243595
            ],
            [
              56.76484282978309,
              26.914413213243595
            ],
            [
              56.76484282978309,
              26.960413213243594
            ],
            [
              56.712842829783085,
              26.960413213243594
            ],
            [
              56.712842829783085,
              26.914413213243595
            ]
          ]
        ]
      },
      "properties": {
        "rank": 71,
        "label": "positive",
        "context": "qeshm_hengam_context",
        "score": 1.8328591650518156,
        "dark_frac": 0.12000274658203125,
        "largest_dark": 0.01145172119140625,
        "edge_touch": 0.0,
        "tile_name": "S1D_20260810T021454_preprocessed_r5120_c26624_uncertain.npz"
      }
    },
    {
      "type": "Feature",
      "geometry": {
        "type": "Polygon",
        "coordinates": [
          [
            [
              55.73601763141369,
              26.63189652167913
            ],
            [
              55.788017631413695,
              26.63189652167913
            ],
            [
              55.788017631413695,
              26.67789652167913
            ],
            [
              55.73601763141369,
              26.67789652167913
            ],
            [
              55.73601763141369,
              26.63189652167913
            ]
          ]
        ]
      },
      "properties": {
        "rank": 72,
        "label": "negative",
        "context": "qeshm_hengam_context",
        "score": 1.8327744885446176,
        "dark_frac": 0.12000274658203125,
        "largest_dark": 0.010486602783203125,
        "edge_touch": 0.4365223717715533,
        "tile_name": "S1D_20260810T021454_preprocessed_r8192_c16896_uncertain.npz"
      }
    },
    {
      "type": "Feature",
      "geometry": {
        "type": "Polygon",
        "coordinates": [
          [
            [
              56.737419395273186,
              26.709668061785333
            ],
            [
              56.78941939527319,
              26.709668061785333
            ],
            [
              56.78941939527319,
              26.755668061785332
            ],
            [
              56.737419395273186,
              26.755668061785332
            ],
            [
              56.737419395273186,
              26.709668061785333
            ]
          ]
        ]
      },
      "properties": {
        "rank": 73,
        "label": "negative",
        "context": "qeshm_hengam_context",
        "score": 1.8327149944322696,
        "dark_frac": 0.12000274658203125,
        "largest_dark": 0.005260467529296875,
        "edge_touch": 0.4604786076867295,
        "tile_name": "S1D_20260805T020639_preprocessed_r7680_c6144_uncertain.npz"
      }
    },
    {
      "type": "Feature",
      "geometry": {
        "type": "Polygon",
        "coordinates": [
          [
            [
              56.50654165150639,
              26.913880605192546
            ],
            [
              56.558541651506395,
              26.913880605192546
            ],
            [
              56.558541651506395,
              26.959880605192545
            ],
            [
              56.50654165150639,
              26.959880605192545
            ],
            [
              56.50654165150639,
              26.913880605192546
            ]
          ]
        ]
      },
      "properties": {
        "rank": 74,
        "label": "positive",
        "context": "qeshm_hengam_context",
        "score": 1.8284313136557888,
        "dark_frac": 0.12000274658203125,
        "largest_dark": 0.009464263916015625,
        "edge_touch": 0.0,
        "tile_name": "S1D_20260810T021454_preprocessed_r5120_c24576_uncertain.npz"
      }
    },
    {
      "type": "Feature",
      "geometry": {
        "type": "Polygon",
        "coordinates": [
          [
            [
              56.661267024932,
              26.914308335811636
            ],
            [
              56.71326702493201,
              26.914308335811636
            ],
            [
              56.71326702493201,
              26.960308335811636
            ],
            [
              56.661267024932,
              26.960308335811636
            ],
            [
              56.661267024932,
              26.914308335811636
            ]
          ]
        ]
      },
      "properties": {
        "rank": 75,
        "label": "positive",
        "context": "qeshm_hengam_context",
        "score": 1.8216346197915652,
        "dark_frac": 0.12000274658203125,
        "largest_dark": 0.005229949951171875,
        "edge_touch": 0.0,
        "tile_name": "S1D_20260810T021454_preprocessed_r5120_c26112_uncertain.npz"
      }
    },
    {
      "type": "Feature",
      "geometry": {
        "type": "Polygon",
        "coordinates": [
          [
            [
              56.27780574738593,
              27.067558322997776
            ],
            [
              56.32980574738594,
              27.067558322997776
            ],
            [
              56.32980574738594,
              27.113558322997775
            ],
            [
              56.27780574738593,
              27.113558322997775
            ],
            [
              56.27780574738593,
              27.067558322997776
            ]
          ]
        ]
      },
      "properties": {
        "rank": 76,
        "label": "positive",
        "context": "qeshm_hengam_context",
        "score": 1.8163979584156136,
        "dark_frac": 0.12000274658203125,
        "largest_dark": 0.0357666015625,
        "edge_touch": 0.19539249146757678,
        "tile_name": "S1C_IW_GRDH_1SDV_20260804T021408_20260804T021438_r7680_c21504_uncertain.npz"
      }
    },
    {
      "type": "Feature",
      "geometry": {
        "type": "Polygon",
        "coordinates": [
          [
            [
              56.840494297716795,
              26.61734575589128
            ],
            [
              56.8924942977168,
              26.61734575589128
            ],
            [
              56.8924942977168,
              26.663345755891278
            ],
            [
              56.840494297716795,
              26.663345755891278
            ],
            [
              56.840494297716795,
              26.61734575589128
            ]
          ]
        ]
      },
      "properties": {
        "rank": 77,
        "label": "positive",
        "context": "qeshm_hengam_context",
        "score": 1.7987166948456683,
        "dark_frac": 0.12000274658203125,
        "largest_dark": 0.08541107177734375,
        "edge_touch": 0.30893255917820456,
        "tile_name": "S1D_20260805T020639_preprocessed_r8704_c7168_uncertain.npz"
      }
    },
    {
      "type": "Feature",
      "geometry": {
        "type": "Polygon",
        "coordinates": [
          [
            [
              55.68510016540241,
              26.585222084745386
            ],
            [
              55.73710016540242,
              26.585222084745386
            ],
            [
              55.73710016540242,
              26.631222084745385
            ],
            [
              55.68510016540241,
              26.631222084745385
            ],
            [
              55.68510016540241,
              26.585222084745386
            ]
          ]
        ]
      },
      "properties": {
        "rank": 78,
        "label": "negative",
        "context": "qeshm_hengam_context",
        "score": 1.7976116396935589,
        "dark_frac": 0.12000274658203125,
        "largest_dark": 0.0028076171875,
        "edge_touch": 0.0,
        "tile_name": "S1D_20260810T021454_preprocessed_r8704_c16384_uncertain.npz"
      }
    },
    {
      "type": "Feature",
      "geometry": {
        "type": "Polygon",
        "coordinates": [
          [
            [
              56.36773127925472,
              27.107866092905308
            ],
            [
              56.41973127925473,
              27.107866092905308
            ],
            [
              56.41973127925473,
              27.153866092905307
            ],
            [
              56.36773127925472,
              27.153866092905307
            ],
            [
              56.36773127925472,
              27.107866092905308
            ]
          ]
        ]
      },
      "properties": {
        "rank": 79,
        "label": "positive",
        "context": "qeshm_hengam_context",
        "score": 1.7907911633830564,
        "dark_frac": 0.12000274658203125,
        "largest_dark": 0.02727508544921875,
        "edge_touch": 0.3288111888111888,
        "tile_name": "S1C_20260808T141633_preprocessed_r5632_c9216_uncertain.npz"
      }
    },
    {
      "type": "Feature",
      "geometry": {
        "type": "Polygon",
        "coordinates": [
          [
            [
              56.73751490539573,
              26.663440149403893
            ],
            [
              56.789514905395734,
              26.663440149403893
            ],
            [
              56.789514905395734,
              26.709440149403893
            ],
            [
              56.73751490539573,
              26.709440149403893
            ],
            [
              56.73751490539573,
              26.663440149403893
            ]
          ]
        ]
      },
      "properties": {
        "rank": 80,
        "label": "negative",
        "context": "qeshm_hengam_context",
        "score": 1.7898927775516087,
        "dark_frac": 0.12000274658203125,
        "largest_dark": 0.005321502685546875,
        "edge_touch": 0.5032258064516129,
        "tile_name": "S1D_20260805T020639_preprocessed_r8192_c6144_uncertain.npz"
      }
    },
    {
      "type": "Feature",
      "geometry": {
        "type": "Polygon",
        "coordinates": [
          [
            [
              56.788827973354984,
              26.75597234664682
            ],
            [
              56.84082797335499,
              26.75597234664682
            ],
            [
              56.84082797335499,
              26.80197234664682
            ],
            [
              56.788827973354984,
              26.80197234664682
            ],
            [
              56.788827973354984,
              26.75597234664682
            ]
          ]
        ]
      },
      "properties": {
        "rank": 81,
        "label": "positive",
        "context": "qeshm_hengam_context",
        "score": 1.780196620775171,
        "dark_frac": 0.12000274658203125,
        "largest_dark": 0.0303497314453125,
        "edge_touch": 0.15723981900452488,
        "tile_name": "S1D_20260805T020639_preprocessed_r7168_c6656_uncertain.npz"
      }
    },
    {
      "type": "Feature",
      "geometry": {
        "type": "Polygon",
        "coordinates": [
          [
            [
              56.89146617443085,
              27.264557070231568
            ],
            [
              56.94346617443086,
              27.264557070231568
            ],
            [
              56.94346617443086,
              27.310557070231567
            ],
            [
              56.89146617443085,
              27.310557070231567
            ],
            [
              56.89146617443085,
              27.264557070231568
            ]
          ]
        ]
      },
      "properties": {
        "rank": 82,
        "label": "negative",
        "context": "outside_primary_context",
        "score": 1.7767602453620637,
        "dark_frac": 0.12000274658203125,
        "largest_dark": 0.0549774169921875,
        "edge_touch": 0.019567027477102414,
        "tile_name": "S1D_20260805T020639_preprocessed_r1536_c7680_uncertain.npz"
      }
    },
    {
      "type": "Feature",
      "geometry": {
        "type": "Polygon",
        "coordinates": [
          [
            [
              56.403393608893914,
              26.913501208314347
            ],
            [
              56.45539360889392,
              26.913501208314347
            ],
            [
              56.45539360889392,
              26.959501208314347
            ],
            [
              56.403393608893914,
              26.959501208314347
            ],
            [
              56.403393608893914,
              26.913501208314347
            ]
          ]
        ]
      },
      "properties": {
        "rank": 83,
        "label": "positive",
        "context": "qeshm_hengam_context",
        "score": 1.7696860369550234,
        "dark_frac": 0.12000274658203125,
        "largest_dark": 0.008609771728515625,
        "edge_touch": 0.0,
        "tile_name": "S1D_20260810T021454_preprocessed_r5120_c23552_uncertain.npz"
      }
    },
    {
      "type": "Feature",
      "geometry": {
        "type": "Polygon",
        "coordinates": [
          [
            [
              56.47228848458861,
              26.830926149467537
            ],
            [
              56.52428848458862,
              26.830926149467537
            ],
            [
              56.52428848458862,
              26.876926149467536
            ],
            [
              56.47228848458861,
              26.876926149467536
            ],
            [
              56.47228848458861,
              26.830926149467537
            ]
          ]
        ]
      },
      "properties": {
        "rank": 84,
        "label": "negative",
        "context": "qeshm_hengam_context",
        "score": 1.768138788760763,
        "dark_frac": 0.12000274658203125,
        "largest_dark": 0.00666046142578125,
        "edge_touch": 0.40607101947308133,
        "tile_name": "S1C_20260808T141633_preprocessed_r8704_c10240_uncertain.npz"
      }
    },
    {
      "type": "Feature",
      "geometry": {
        "type": "Polygon",
        "coordinates": [
          [
            [
              56.506350800902034,
              26.96010573068932
            ],
            [
              56.55835080090204,
              26.96010573068932
            ],
            [
              56.55835080090204,
              27.00610573068932
            ],
            [
              56.506350800902034,
              27.00610573068932
            ],
            [
              56.506350800902034,
              26.96010573068932
            ]
          ]
        ]
      },
      "properties": {
        "rank": 85,
        "label": "positive",
        "context": "qeshm_hengam_context",
        "score": 1.7670002591490723,
        "dark_frac": 0.12000274658203125,
        "largest_dark": 0.00502777099609375,
        "edge_touch": 0.0,
        "tile_name": "S1D_20260810T021454_preprocessed_r4608_c24576_uncertain.npz"
      }
    },
    {
      "type": "Feature",
      "geometry": {
        "type": "Polygon",
        "coordinates": [
          [
            [
              56.84044048606399,
              26.66357423791523
            ],
            [
              56.892440486064,
              26.66357423791523
            ],
            [
              56.892440486064,
              26.70957423791523
            ],
            [
              56.84044048606399,
              26.70957423791523
            ],
            [
              56.84044048606399,
              26.66357423791523
            ]
          ]
        ]
      },
      "properties": {
        "rank": 86,
        "label": "positive",
        "context": "qeshm_hengam_context",
        "score": 1.766784868355362,
        "dark_frac": 0.12000274658203125,
        "largest_dark": 0.015682220458984375,
        "edge_touch": 0.0,
        "tile_name": "S1D_20260805T020639_preprocessed_r8192_c7168_uncertain.npz"
      }
    },
    {
      "type": "Feature",
      "geometry": {
        "type": "Polygon",
        "coordinates": [
          [
            [
              55.787932425757404,
              26.586116426240423
            ],
            [
              55.83993242575741,
              26.586116426240423
            ],
            [
              55.83993242575741,
              26.632116426240422
            ],
            [
              55.787932425757404,
              26.632116426240422
            ],
            [
              55.787932425757404,
              26.586116426240423
            ]
          ]
        ]
      },
      "properties": {
        "rank": 87,
        "label": "positive",
        "context": "qeshm_hengam_context",
        "score": 1.7661823031090085,
        "dark_frac": 0.12000274658203125,
        "largest_dark": 0.031078338623046875,
        "edge_touch": 0.22106296796366762,
        "tile_name": "S1D_20260810T021454_preprocessed_r8704_c17408_uncertain.npz"
      }
    },
    {
      "type": "Feature",
      "geometry": {
        "type": "Polygon",
        "coordinates": [
          [
            [
              57.04667790467093,
              27.264562538333728
            ],
            [
              57.098677904670936,
              27.264562538333728
            ],
            [
              57.098677904670936,
              27.310562538333727
            ],
            [
              57.04667790467093,
              27.310562538333727
            ],
            [
              57.04667790467093,
              27.264562538333728
            ]
          ]
        ]
      },
      "properties": {
        "rank": 88,
        "label": "negative",
        "context": "outside_primary_context",
        "score": 1.76332403012303,
        "dark_frac": 0.12000274658203125,
        "largest_dark": 0.0201416015625,
        "edge_touch": 0.13693181818181818,
        "tile_name": "S1D_20260805T020639_preprocessed_r1536_c9216_uncertain.npz"
      }
    },
    {
      "type": "Feature",
      "geometry": {
        "type": "Polygon",
        "coordinates": [
          [
            [
              56.815995156785675,
              26.91456641650365
            ],
            [
              56.86799515678568,
              26.91456641650365
            ],
            [
              56.86799515678568,
              26.96056641650365
            ],
            [
              56.815995156785675,
              26.96056641650365
            ],
            [
              56.815995156785675,
              26.91456641650365
            ]
          ]
        ]
      },
      "properties": {
        "rank": 89,
        "label": "positive",
        "context": "qeshm_hengam_context",
        "score": 1.760759094152741,
        "dark_frac": 0.12000274658203125,
        "largest_dark": 0.021228790283203125,
        "edge_touch": 0.0,
        "tile_name": "S1D_20260810T021454_preprocessed_r5120_c27648_uncertain.npz"
      }
    },
    {
      "type": "Feature",
      "geometry": {
        "type": "Polygon",
        "coordinates": [
          [
            [
              56.17452196847606,
              27.067008815593457
            ],
            [
              56.226521968476064,
              27.067008815593457
            ],
            [
              56.226521968476064,
              27.113008815593457
            ],
            [
              56.17452196847606,
              27.113008815593457
            ],
            [
              56.17452196847606,
              27.067008815593457
            ]
          ]
        ]
      },
      "properties": {
        "rank": 90,
        "label": "positive",
        "context": "qeshm_hengam_context",
        "score": 1.7571103463251176,
        "dark_frac": 0.12000274658203125,
        "largest_dark": 0.005008697509765625,
        "edge_touch": 0.0,
        "tile_name": "S1C_IW_GRDH_1SDV_20260804T021408_20260804T021438_r7680_c20480_uncertain.npz"
      }
    },
    {
      "type": "Feature",
      "geometry": {
        "type": "Polygon",
        "coordinates": [
          [
            [
              56.368476488806316,
              26.96919586637781
            ],
            [
              56.42047648880632,
              26.96919586637781
            ],
            [
              56.42047648880632,
              27.01519586637781
            ],
            [
              56.368476488806316,
              27.01519586637781
            ],
            [
              56.368476488806316,
              26.96919586637781
            ]
          ]
        ]
      },
      "properties": {
        "rank": 91,
        "label": "positive",
        "context": "qeshm_hengam_context",
        "score": 1.7546081966678335,
        "dark_frac": 0.12000274658203125,
        "largest_dark": 0.05173492431640625,
        "edge_touch": 0.26655360566288155,
        "tile_name": "S1C_20260808T141633_preprocessed_r7168_c9216_uncertain.npz"
      }
    },
    {
      "type": "Feature",
      "geometry": {
        "type": "Polygon",
        "coordinates": [
          [
            [
              56.686168448827814,
              26.617117110322237
            ],
            [
              56.73816844882782,
              26.617117110322237
            ],
            [
              56.73816844882782,
              26.663117110322236
            ],
            [
              56.686168448827814,
              26.663117110322236
            ],
            [
              56.686168448827814,
              26.617117110322237
            ]
          ]
        ]
      },
      "properties": {
        "rank": 92,
        "label": "negative",
        "context": "qeshm_hengam_context",
        "score": 1.747278069441366,
        "dark_frac": 0.12000274658203125,
        "largest_dark": 0.003696441650390625,
        "edge_touch": 0.0,
        "tile_name": "S1D_20260805T020639_preprocessed_r8704_c5632_uncertain.npz"
      }
    },
    {
      "type": "Feature",
      "geometry": {
        "type": "Polygon",
        "coordinates": [
          [
            [
              56.557946589645134,
              26.960267477983848
            ],
            [
              56.60994658964514,
              26.960267477983848
            ],
            [
              56.60994658964514,
              27.006267477983847
            ],
            [
              56.557946589645134,
              27.006267477983847
            ],
            [
              56.557946589645134,
              26.960267477983848
            ]
          ]
        ]
      },
      "properties": {
        "rank": 93,
        "label": "positive",
        "context": "qeshm_hengam_context",
        "score": 1.74124573072055,
        "dark_frac": 0.12000274658203125,
        "largest_dark": 0.00991058349609375,
        "edge_touch": 0.0,
        "tile_name": "S1D_20260810T021454_preprocessed_r4608_c25088_uncertain.npz"
      }
    },
    {
      "type": "Feature",
      "geometry": {
        "type": "Polygon",
        "coordinates": [
          [
            [
              56.634590245067116,
              26.663231471219586
            ],
            [
              56.68659024506712,
              26.663231471219586
            ],
            [
              56.68659024506712,
              26.709231471219585
            ],
            [
              56.634590245067116,
              26.709231471219585
            ],
            [
              56.634590245067116,
              26.663231471219586
            ]
          ]
        ]
      },
      "properties": {
        "rank": 94,
        "label": "positive",
        "context": "qeshm_hengam_context",
        "score": 1.7326785572045014,
        "dark_frac": 0.12000274658203125,
        "largest_dark": 0.01055145263671875,
        "edge_touch": 0.10737527114967461,
        "tile_name": "S1D_20260805T020639_preprocessed_r8192_c5120_uncertain.npz"
      }
    },
    {
      "type": "Feature",
      "geometry": {
        "type": "Polygon",
        "coordinates": [
          [
            [
              54.65431639756735,
              26.710768249045824
            ],
            [
              54.706316397567356,
              26.710768249045824
            ],
            [
              54.706316397567356,
              26.756768249045823
            ],
            [
              54.65431639756735,
              26.756768249045823
            ],
            [
              54.65431639756735,
              26.710768249045824
            ]
          ]
        ]
      },
      "properties": {
        "rank": 95,
        "label": "negative",
        "context": "outside_primary_context",
        "score": 1.7191224951705193,
        "dark_frac": 0.12000274658203125,
        "largest_dark": 0.0265045166015625,
        "edge_touch": 0.03929188255613126,
        "tile_name": "S1D_20260810T021454_preprocessed_r7168_c6144_uncertain.npz"
      }
    },
    {
      "type": "Feature",
      "geometry": {
        "type": "Polygon",
        "coordinates": [
          [
            [
              56.480006433488995,
              26.709005192810658
            ],
            [
              56.532006433489,
              26.709005192810658
            ],
            [
              56.532006433489,
              26.755005192810657
            ],
            [
              56.480006433488995,
              26.755005192810657
            ],
            [
              56.480006433488995,
              26.709005192810658
            ]
          ]
        ]
      },
      "properties": {
        "rank": 96,
        "label": "positive",
        "context": "qeshm_hengam_context",
        "score": 1.7085149782860007,
        "dark_frac": 0.12000274658203125,
        "largest_dark": 0.07027053833007812,
        "edge_touch": 0.11921176917648336,
        "tile_name": "S1D_20260805T020639_preprocessed_r7680_c3584_uncertain.npz"
      }
    },
    {
      "type": "Feature",
      "geometry": {
        "type": "Polygon",
        "coordinates": [
          [
            [
              55.80141848557399,
              26.919397213315104
            ],
            [
              55.853418485574,
              26.919397213315104
            ],
            [
              55.853418485574,
              26.965397213315104
            ],
            [
              55.80141848557399,
              26.965397213315104
            ],
            [
              55.80141848557399,
              26.919397213315104
            ]
          ]
        ]
      },
      "properties": {
        "rank": 97,
        "label": "positive",
        "context": "qeshm_hengam_context",
        "score": 1.708014822903297,
        "dark_frac": 0.12000274658203125,
        "largest_dark": 0.03753662109375,
        "edge_touch": 0.2894308943089431,
        "tile_name": "S1C_20260808T141633_preprocessed_r7680_c3584_uncertain.npz"
      }
    },
    {
      "type": "Feature",
      "geometry": {
        "type": "Polygon",
        "coordinates": [
          [
            [
              56.14620815438977,
              26.81977833402953
            ],
            [
              56.198208154389775,
              26.81977833402953
            ],
            [
              56.198208154389775,
              26.865778334029528
            ],
            [
              56.14620815438977,
              26.865778334029528
            ],
            [
              56.14620815438977,
              26.81977833402953
            ]
          ]
        ]
      },
      "properties": {
        "rank": 98,
        "label": "positive",
        "context": "qeshm_hengam_context",
        "score": 1.7063706465342134,
        "dark_frac": 0.12000274658203125,
        "largest_dark": 0.012233734130859375,
        "edge_touch": 0.0,
        "tile_name": "S1D_20260810T021454_preprocessed_r6144_c20992_uncertain.npz"
      }
    },
    {
      "type": "Feature",
      "geometry": {
        "type": "Polygon",
        "coordinates": [
          [
            [
              56.88462890218129,
              26.78556045030537
            ],
            [
              56.9366289021813,
              26.78556045030537
            ],
            [
              56.9366289021813,
              26.831560450305368
            ],
            [
              56.88462890218129,
              26.831560450305368
            ],
            [
              56.88462890218129,
              26.78556045030537
            ]
          ]
        ]
      },
      "properties": {
        "rank": 99,
        "label": "negative",
        "context": "outside_primary_context",
        "score": 1.7019045887830495,
        "dark_frac": 0.12000274658203125,
        "largest_dark": 0.0054779052734375,
        "edge_touch": 0.20055710306406685,
        "tile_name": "S1C_20260808T141633_preprocessed_r9216_c14336_uncertain.npz"
      }
    },
    {
      "type": "Feature",
      "geometry": {
        "type": "Polygon",
        "coordinates": [
          [
            [
              56.47980652936824,
              26.755231477549174
            ],
            [
              56.53180652936825,
              26.755231477549174
            ],
            [
              56.53180652936825,
              26.801231477549173
            ],
            [
              56.47980652936824,
              26.801231477549173
            ],
            [
              56.47980652936824,
              26.755231477549174
            ]
          ]
        ]
      },
      "properties": {
        "rank": 100,
        "label": "positive",
        "context": "qeshm_hengam_context",
        "score": 1.6988926969697975,
        "dark_frac": 0.12000274658203125,
        "largest_dark": 0.01204681396484375,
        "edge_touch": 0.0,
        "tile_name": "S1D_20260805T020639_preprocessed_r7168_c3584_uncertain.npz"
      }
    }
  ]
}
