{
  "type": "FeatureCollection",
  "features": [
    {
      "type": "Feature",
      "id": 1,
      "properties": {
        "id": 1,
        "area_km2": 0.42
      },
      "geometry": {
        "type": "Polygon",
        "coordinates": [
          [
            [69.70, 19.40],
            [69.80, 19.40],
            [69.80, 19.48],
            [69.70, 19.48],
            [69.70, 19.40]
          ]
        ]
      }
    },
    {
      "type": "Feature",
      "id": 2,
      "properties": {
        "id": 2,
        "area_km2": 0.31
      },
      "geometry": {
        "type": "Polygon",
        "coordinates": [
          [
            [69.85, 19.50],
            [69.94, 19.50],
            [69.94, 19.57],
            [69.85, 19.57],
            [69.85, 19.50]
          ]
        ]
      }
    },
    {
      "type": "Feature",
      "id": 3,
      "properties": {
        "id": 3,
        "area_km2": 0.67
      },
      "geometry": {
        "type": "Polygon",
        "coordinates": [
          [
            [70.00, 19.60],
            [70.12, 19.60],
            [70.12, 19.69],
            [70.00, 19.69],
            [70.00, 19.60]
          ]
        ]
      }
    }
  ]
}